[{"OBJECT_NAME":"FUNCUBE-1 (AO-73)","OBJECT_ID":"2013-066AE","EPOCH":"2026-03-09T21:45:20.354112","MEAN_MOTION":15.07917828,"ECCENTRICITY":0.00373117,"INCLINATION":97.8195,"RA_OF_ASC_NODE":38.4486,"ARG_OF_PERICENTER":178.1154,"MEAN_ANOMALY":182.0221,"EPHEMERIS_TYPE":0,"CLASSIFICATION_TYPE":"U","NORAD_CAT_ID":39444,"ELEMENT_SET_NO":999,"REV_AT_EPOCH":66469,"BSTAR":0.00061714882,"MEAN_MOTION_DOT":9.564e-5,"MEAN_MOTION_DDOT":0},{"OBJECT_NAME":"STARLINK-4569","OBJECT_ID":"2022-105AR","EPOCH":"2026-03-09T15:16:10.142400","MEAN_MOTION":15.05631593,"ECCENTRICITY":0.0002028,"INCLINATION":97.6053,"RA_OF_ASC_NODE":311.1164,"ARG_OF_PERICENTER":74.568,"MEAN_ANOMALY":285.5771,"EPHEMERIS_TYPE":0,"CLASSIFICATION_TYPE":"U","NORAD_CAT_ID":53687,"ELEMENT_SET_NO":999,"REV_AT_EPOCH":19329,"BSTAR":0.00015205,"MEAN_MOTION_DOT":2.133e-5,"MEAN_MOTION_DDOT":0}]
